IRIDIUM 159             
1 43578U 18061K   23350.30840602  .00000367  00000+0  12408-3 0  9992
2 43578  86.3966  78.6497 0001968  98.0254 262.1165 14.34221477282392
IRIDIUM 180             
1 43922U 19002A   23350.51720662  .00000290  00000+0  96444-4 0  9995
2 43922  86.3974  15.4368 0001984  93.6377 266.5045 14.34219495258031
IRIDIUM 176             
1 43923U 19002B   23350.60504589  .00001042  00000+0  16132-3 0  9995
2 43923  86.6102  15.4312 0002367  91.8869 268.2620 14.72249096264834
IRIDIUM 168             
1 43924U 19002C   23350.51086589  .00000296  00000+0  98615-4 0  9998
2 43924  86.3976  15.4909 0002067  94.2215 265.9217 14.34220866258013
IRIDIUM 173             
1 43925U 19002D   23350.49817917  .00000294  00000+0  98058-4 0  9992
2 43925  86.3972  15.4224 0002215  97.9645 262.1802 14.34219589257997
IRIDIUM 169             
1 43926U 19002E   23350.70676862  .00000393  00000+0  12185-3 0  9995
2 43926  86.4231  46.9417 0004913 105.5347 254.6394 14.38599219258899
IRIDIUM 172             
1 43927U 19002F   23350.56161229  .00000309  00000+0  10334-3 0  9997
2 43927  86.3972  15.4011 0002088  92.2329 267.9106 14.34219226258010
IRIDIUM 175             
1 43928U 19002G   23350.53113680  .00001135  00000+0  17603-3 0  9997
2 43928  86.1509 358.9930 0002433  90.5601 269.5895 14.72239996264814
